H1 CPF  1  DLR 2023 01 02 13  5022 technosat            
H2  1704205 6203    42829 2023 01 02 00 00 00 2023 01 09 00 00 00    60 1 1  0 0 0
H9
10 0 59946  79200.000000  0      -4196049.958       2956931.498      -4726636.714
10 0 59946  79260.000000  0      -4373889.429       3208249.064      -4388159.446
10 0 59946  79320.000000  0      -4531217.934       3447562.401      -4031123.338
10 0 59946  79380.000000  0      -4667470.031       3673673.155      -3657024.764
10 0 59946  79440.000000  0      -4782178.159       3885432.428      -3267434.842
10 0 59946  79500.000000  0      -4874974.524       4081746.737      -2863992.990
10 0 59946  79560.000000  0      -4945592.462       4261583.759      -2448400.156
10 0 59946  79620.000000  0      -4993867.388       4423977.868      -2022411.800
10 0 59946  79680.000000  0      -5019737.297       4568035.485      -1587830.473
10 0 59946  79740.000000  0      -5023242.725       4692940.058      -1146498.103
10 0 59946  79800.000000  0      -5004526.232       4797956.741       -700288.079
10 0 59946  79860.000000  0      -4963831.347       4882436.742       -251097.056
10 0 59946  79920.000000  0      -4901500.927       4945821.251        199163.331
10 0 59946  79980.000000  0      -4817975.158       4987644.898        648574.864
10 0 59946  80040.000000  0      -4713789.060       5007538.759       1095221.281
10 0 59946  80100.000000  0      -4589569.421       5005232.908       1537196.820
10 0 59946  80160.000000  0      -4446031.256       4980558.459       1972614.698
10 0 59946  80220.000000  0      -4283973.835       4933449.087       2399615.481
10 0 59946  80280.000000  0      -4104276.326       4863942.052       2816375.327
10 0 59946  80340.000000  0      -3907893.040       4772178.714       3221114.053
10 0 59946  80400.000000  0      -3695848.339       4658404.520       3612102.981
10 0 59946  80460.000000  0      -3469231.265       4522968.441       3987672.514
10 0 59946  80520.000000  0      -3229189.886       4366321.968       4346219.478
10 0 59946  80580.000000  0      -2976925.320       4189017.538       4686214.132
10 0 59946  80640.000000  0      -2713685.592       3991706.450       5006206.786
10 0 59946  80700.000000  0      -2440759.297       3775136.301       5304834.039
10 0 59946  80760.000000  0      -2159469.125       3540147.942       5580824.572
10 0 59946  80820.000000  0      -1871165.295       3287672.014       5833004.527
10 0 59946  80880.000000  0      -1577218.921       3018725.039       6060302.404
10 0 59946  80940.000000  0      -1279015.331       2734405.078       6261753.513
10 0 59946  81000.000000  0       -977947.431       2435886.996       6436503.814
10 0 59946  81060.000000  0       -675409.219       2124417.512       6583813.364
10 0 59946  81120.000000  0       -372789.268       1801309.861       6703059.409
10 0 59946  81180.000000  0        -71464.256       1467938.063       6793738.890
10 0 59946  81240.000000  0        227207.355       1125730.942       6855470.375
10 0 59946  81300.000000  0        521891.481        776165.935       6887995.517
10 0 59946  81360.000000  0        811284.386        420762.653       6891180.036
10 0 59946  81420.000000  0       1094118.464         61076.230       6865014.229
10 0 59946  81480.000000  0       1369167.820       -301309.546       6809612.990
10 0 59946  81540.000000  0       1635253.622       -664789.305       6725215.294
10 0 59946  81600.000000  0       1891249.175      -1027743.266       6612183.097
10 0 59946  81660.000000  0       2136084.708      -1388544.439       6470999.851
10 0 59946  81720.000000  0       2368751.921      -1745566.014       6302268.559
10 0 59946  81780.000000  0       2588308.223      -2097188.803       6106709.244
10 0 59946  81840.000000  0       2793880.622      -2441808.655       5885155.910
10 0 59946  81900.000000  0       2984669.257      -2777843.849       5638553.051
10 0 59946  81960.000000  0       3159950.553      -3103742.476       5367951.721
10 0 59946  82020.000000  0       3319080.027      -3417989.737       5074505.110
10 0 59946  82080.000000  0       3461494.700      -3719115.077       4759463.694
10 0 59946  82140.000000  0       3586715.172      -4005699.239       4424169.967
10 0 59946  82200.000000  0       3694347.244      -4276381.136       4070052.674
10 0 59946  82260.000000  0       3784083.052      -4529864.425       3698620.664
10 0 59946  82320.000000  0       3855701.838      -4764923.855       3311456.450
10 0 59946  82380.000000  0       3909070.291      -4980411.337       2910209.358
10 0 59946  82440.000000  0       3944142.437      -5175261.647       2496588.356
10 0 59946  82500.000000  0       3960959.086      -5348497.763       2072354.638
10 0 59946  82560.000000  0       3959646.876      -5499235.810       1639313.941
10 0 59946  82620.000000  0       3940416.849      -5626689.560       1199308.623
10 0 59946  82680.000000  0       3903562.596      -5730174.406        754209.614
10 0 59946  82740.000000  0       3849458.051      -5809110.891        305908.352
10 0 59946  82800.000000  0       3778554.971      -5863027.860       -143691.464
10 0 59946  82860.000000  0       3691379.942      -5891565.026       -592682.263
10 0 59946  82920.000000  0       3588530.965      -5894474.929      -1039160.961
10 0 59946  82980.000000  0       3470673.742      -5871624.326      -1481237.158
10 0 59946  83040.000000  0       3338537.710      -5822995.087      -1917041.234
10 0 59946  83100.000000  0       3192911.815      -5748684.579      -2344732.376
10 0 59946  83160.000000  0       3034639.967      -5648905.461      -2762506.467
10 0 59946  83220.000000  0       2864616.273      -5523984.889      -3168603.726
10 0 59946  83280.000000  0       2683780.090      -5374363.195      -3561316.083
10 0 59946  83340.000000  0       2493110.878      -5200592.052      -3938994.261
10 0 59946  83400.000000  0       2293622.945      -5003332.133      -4300054.522
10 0 59946  83460.000000  0       2086360.107      -4783350.290      -4642985.074
10 0 59946  83520.000000  0       1872390.323      -4541516.259      -4966352.102
10 0 59946  83580.000000  0       1652800.307      -4278798.963      -5268805.445
10 0 59946  83640.000000  0       1428690.125      -3996262.403      -5549083.902
10 0 59946  83700.000000  0       1201167.778      -3695061.147      -5806020.111
10 0 59946  83760.000000  0        971343.842      -3376435.486      -6038545.032
10 0 59946  83820.000000  0        740326.161      -3041706.236      -6245692.020
10 0 59946  83880.000000  0        509214.642      -2692269.208      -6426600.473
10 0 59946  83940.000000  0        279096.177      -2329589.375      -6580519.054
10 0 59946  84000.000000  0         51039.697      -1955194.778      -6706808.477
10 0 59946  84060.000000  0       -173908.609      -1570670.192      -6804943.869
10 0 59946  84120.000000  0       -394729.892      -1177650.559      -6874516.735
10 0 59946  84180.000000  0       -610437.084       -777814.216      -6915236.462
10 0 59946  84240.000000  0       -820079.151       -372875.943      -6926931.420
10 0 59946  84300.000000  0      -1022745.180         35420.130      -6909549.580
10 0 59946  84360.000000  0      -1217568.212        445307.726      -6863158.757
10 0 59946  84420.000000  0      -1403728.857        855005.793      -6787946.471
10 0 59946  84480.000000  0      -1580458.645       1262726.035      -6684219.320
10 0 59946  84540.000000  0      -1747043.110       1666680.427      -6552401.882
10 0 59946  84600.000000  0      -1902824.643       2065088.766      -6393035.331
10 0 59946  84660.000000  0      -2047205.124       2456186.372      -6206775.630
10 0 59946  84720.000000  0      -2179648.264       2838231.838      -5994391.167
10 0 59946  84780.000000  0      -2299681.600       3209514.659      -5756759.950
10 0 59946  84840.000000  0      -2406898.231       3568362.855      -5494866.464
10 0 59946  84900.000000  0      -2500958.287       3913150.577      -5209798.042
10 0 59946  84960.000000  0      -2581590.075       4242305.597      -4902740.747
10 0 59946  85020.000000  0      -2648590.891       4554316.640      -4574974.810
10 0 59946  85080.000000  0      -2701827.486       4847740.526      -4227869.617
10 0 59946  85140.000000  0      -2741236.189       5121209.064      -3862878.269
10 0 59946  85200.000000  0      -2766822.672       5373435.617      -3481531.786
10 0 59946  85260.000000  0      -2778661.405       5603221.476      -3085433.035
10 0 59946  85320.000000  0      -2776894.784       5809461.965      -2676250.194
10 0 59946  85380.000000  0      -2761731.919       5991152.158      -2255709.842
10 0 59946  85440.000000  0      -2733447.051       6147392.167      -1825589.642
10 0 59946  85500.000000  0      -2692377.588       6277391.865      -1387710.755
10 0 59946  85560.000000  0      -2638921.891       6380475.134       -943930.104
10 0 59946  85620.000000  0      -2573536.739       6456083.652       -496132.453
10 0 59946  85680.000000  0      -2496734.541       6503780.314        -46222.290
10 0 59946  85740.000000  0      -2409080.220       6523252.026        403884.668
10 0 59946  85800.000000  0      -2311187.744       6514311.757        852270.057
10 0 59946  85860.000000  0      -2203716.391       6476899.885       1297021.452
10 0 59946  85920.000000  0      -2087366.789       6411084.907       1736240.843
10 0 59946  85980.000000  0      -1962876.784       6317063.559       2168053.038
10 0 59946  86040.000000  0      -1831017.119       6195160.302       2590613.989
10 0 59946  86100.000000  0      -1692586.987       6045826.152       3002118.918
10 0 59946  86160.000000  0      -1548409.475       5869636.950       3400810.260
10 0 59946  86220.000000  0      -1399326.914       5667291.015       3784985.428
10 0 59946  86280.000000  0      -1246196.198       5439606.163       4153004.273
10 0 59946  86340.000000  0      -1089884.047       5187516.209       4503296.334
99
